GLOBALSTAR M024 [-]     
1 25883U 99043A   23254.60434635 -.00000070  00000+0 -18284-3 0  9992
2 25883  52.0041  35.0005 0002074 110.5077 333.7671 11.10151321 43279
GLOBALSTAR M027 [-]     
1 25884U 99043B   23254.23121634 -.00000094  00000+0 -11591-2 0  9993
2 25884  52.0198  95.5619 0021894  31.0844 329.1240 11.04365908 69983
GLOBALSTAR M054 [-]     
1 25885U 99043C   23254.94314205 -.00000065  00000+0  16445-3 0  9991
2 25885  52.0167 329.3862 0004810 135.4092  34.3707 11.39205746 45956
GLOBALSTAR M053 [-]     
1 25886U 99043D   23254.29940205 -.00000047  00000+0  64296-3 0  9992
2 25886  51.9950 242.2480 0003453  64.7257  40.0891 11.27650732 46699
GLOBALSTAR M058 [-]     
1 25907U 99049A   23254.68640316 -.00000077  00000+0  10310-3 0  9996
2 25907  51.9967  30.1069 0002936 104.1726 255.9435 11.93165959 75826
GLOBALSTAR M050 [-]     
1 25908U 99049B   23254.94275498  .00000020  00000+0  12171-2 0  9994
2 25908  51.9982  85.2288 0008745 182.9352 329.6348 12.07421957 75091
GLOBALSTAR M033 [-]     
1 25909U 99049C   23254.55083850 -.00000043  00000+0  46629-3 0  9993
2 25909  51.9944   2.6633 0011827  34.6426 325.5190 12.20262018457042
GLOBALSTAR M055 [-]     
1 25910U 99049D   23254.77693374 -.00000057  00000+0  32246-3 0  9992
2 25910  52.0036  44.1299 0006378 228.9974 131.0326 12.29386221 89244
